[
    {
        "CCSDS_OMM_VERS": "3.0",
        "COMMENT": "GENERATED VIA SPACE-TRACK.ORG API",
        "CREATION_DATE": "2025-05-03T22:56:49",
        "ORIGINATOR": "18 SPCS",
        "OBJECT_NAME": "GALILEO 19 (2C5)",
        "OBJECT_ID": "2017-079A",
        "CENTER_NAME": "EARTH",
        "REF_FRAME": "TEME",
        "TIME_SYSTEM": "UTC",
        "MEAN_ELEMENT_THEORY": "SGP4",
        "EPOCH": "2025-05-03T13:56:48.746400",
        "MEAN_MOTION": "1.70474754",
        "ECCENTRICITY": "0.00013460",
        "INCLINATION": "55.2092",
        "RA_OF_ASC_NODE": "232.7770",
        "ARG_OF_PERICENTER": "248.7515",
        "MEAN_ANOMALY": "111.2377",
        "EPHEMERIS_TYPE": "0",
        "CLASSIFICATION_TYPE": "U",
        "NORAD_CAT_ID": "43055",
        "ELEMENT_SET_NO": "999",
        "REV_AT_EPOCH": "4600",
        "BSTAR": "0.00000000000000",
        "MEAN_MOTION_DOT": "-0.00000031",
        "MEAN_MOTION_DDOT": "0.0000000000000",
        "SEMIMAJOR_AXIS": "29600.233",
        "PERIOD": "844.700",
        "APOAPSIS": "23226.082",
        "PERIAPSIS": "23218.114",
        "OBJECT_TYPE": "PAYLOAD",
        "RCS_SIZE": "LARGE",
        "COUNTRY_CODE": "ESA",
        "LAUNCH_DATE": "2017-12-12",
        "SITE": "FRGUI",
        "DECAY_DATE": null,
        "FILE": "4718186",
        "GP_ID": "286780346",
        "TLE_LINE0": "0 GALILEO 19 (2C5)",
        "TLE_LINE1": "1 43055U 17079A   25123.58111975 -.00000031  00000-0  00000+0 0  9995",
        "TLE_LINE2": "2 43055  55.2092 232.7770 0001346 248.7515 111.2377  1.70474754 46007"
    }
]